     2.100          NAVIGATION                              RINEX VERSION / TYPE
fic2rin                                 06/29/2016 00:23:14 PGM / RUN BY / DATE
                                                            END OF HEADER
21 16  6 28  8  0  0.0 -.527014955878D-03 -.102318153949D-11  .000000000000D+00
     .260000000000D+02 -.250000000000D+02  .548237121991D-08 -.659302691495D+00
    -.103749334812D-05  .233597521437D-01  .595860183239D-05  .515358632088D+04
     .201600000000D+06 -.225380063057D-06 -.281973373117D+01  .324100255966D-06
     .936882438126D+00  .259437500000D+03 -.177988750522D+01 -.902537594314D-08
     .248224625266D-09  .100000000000D+01  .190300000000D+04  .000000000000D+00
     .240000000000D+01  .000000000000D+00 -.102445483208D-07  .260000000000D+02
     .194406000000D+06  .400000000000D+01
23 16  6 28  8  0  0.0 -.179956667125D-03 -.159161572810D-11  .000000000000D+00
     .930000000000D+02  .667812500000D+02  .506913972145D-08  .185036586584D+01
     .355578958988D-05  .110782934353D-01  .900775194168D-05  .515366184235D+04
     .201600000000D+06 -.324100255966D-06 -.699467913429D+00  .102445483208D-06
     .945813712458D+00  .202625000000D+03 -.255890338713D+01 -.834999066777D-08
     .141077305007D-09  .100000000000D+01  .190300000000D+04  .000000000000D+00
     .340000000000D+01  .000000000000D+00 -.200234353542D-07  .930000000000D+02
     .194406000000D+06  .400000000000D+01
24 16  6 28  8  0  0.0 -.192839652300D-04 -.568434188608D-12  .000000000000D+00
     .900000000000D+02  .133125000000D+02  .523700385652D-08  .130349180369D+01
     .854954123497D-06  .442922639195D-02  .428780913353D-05  .515360940361D+04
     .201600000000D+06  .745058059692D-08  .325737975517D+00  .122934579849D-06
     .949382689828D+00  .289125000000D+03  .412774312976D+00 -.865750347691D-08
    -.275725770799D-09  .100000000000D+01  .190300000000D+04  .000000000000D+00
     .240000000000D+01  .000000000000D+00  .232830643654D-08  .900000000000D+02
     .194406000000D+06  .400000000000D+01
25 16  6 28  8  0  0.0 -.198429450393D-03 -.704858393874D-11  .000000000000D+00
     .390000000000D+02 -.419687500000D+02  .402981071493D-08 -.776836031573D+00
    -.228174030781D-05  .562493049074D-02  .940822064877D-05  .515373862267D+04
     .201600000000D+06  .875443220139D-07  .139904265645D+01  .100582838058D-06
     .978319149457D+00  .205906250000D+03  .789396213178D+00 -.799211861811D-08
    -.374658463172D-09  .100000000000D+01  .190300000000D+04  .000000000000D+00
     .240000000000D+01  .000000000000D+00  .558793544769D-08  .390000000000D+02
     .194406000000D+06  .400000000000D+01
27 16  6 28  8  0  0.0  .108511187136D-03  .432009983342D-11  .000000000000D+00
     .850000000000D+02  .953125000000D+01  .407731269358D-08 -.313361505116D+01
     .566244125366D-06  .375868089031D-02  .853464007378D-05  .515364658165D+04
     .201600000000D+06  .745058059692D-08  .244049584232D+01 -.298023223877D-07
     .971795286763D+00  .221531250000D+03  .317807265468D+00 -.790032908042D-08
     .380730144653D-09  .100000000000D+01  .190300000000D+04  .000000000000D+00
     .240000000000D+01  .000000000000D+00  .139698386192D-08  .850000000000D+02
     .194406000000D+06  .400000000000D+01
29 16  6 28  8  0  0.0  .656221527606D-03 -.454747350886D-12  .000000000000D+00
     .440000000000D+02  .119062500000D+02  .404195407790D-08 -.887507756283D+00
     .644475221634D-06  .877898070030D-03  .827573239803D-05  .515355237961D+04
     .201600000000D+06  .335276126862D-07  .250032967160D+01 -.856816768646D-07
     .977864258006D+00  .229562500000D+03 -.114543347647D+00 -.790997233924D-08
     .382873091058D-09  .100000000000D+01  .190300000000D+04  .000000000000D+00
     .240000000000D+01  .000000000000D+00 -.102445483208D-07  .440000000000D+02
     .194406000000D+06  .400000000000D+01
30 16  6 28  8  0  0.0  .136140733957D-03  .261479726760D-11  .000000000000D+00
     .620000000000D+02 -.375000000000D+00  .499306512406D-08  .455190951204D+00
    -.253319740295D-06  .223600503523D-02  .414066016674D-05  .515358833504D+04
     .201600000000D+06 -.316649675369D-07  .417118184887D+00  .372529029846D-08
     .952067586305D+00  .290593750000D+03  .305815656338D+01 -.848535344903D-08
    -.363943731146D-09  .100000000000D+01  .190300000000D+04  .000000000000D+00
     .240000000000D+01  .000000000000D+00  .325962901115D-08  .620000000000D+02
     .194406000000D+06  .400000000000D+01
31 16  6 28  8  0  0.0  .261661130935D-03 -.193267624127D-11  .000000000000D+00
     .950000000000D+02  .144375000000D+02  .465519390751D-08  .202754436119D+00
     .568106770515D-06  .815135426819D-02  .451318919659D-05  .515376799202D+04
     .201600000000D+06  .987201929092D-07  .382926126227D+00 -.279396772385D-07
     .971109720926D+00  .298593750000D+03 -.395181311356D+00 -.840034990829D-08
    -.273225666660D-09  .100000000000D+01  .190300000000D+04  .000000000000D+00
     .240000000000D+01  .000000000000D+00 -.135041773319D-07  .950000000000D+02
     .194406000000D+06  .400000000000D+01
32 16  6 28  8  0  0.0 -.347066670656D-04 -.898126018001D-11  .000000000000D+00
     .103000000000D+03  .697187500000D+02  .473341145130D-08 -.277200288941D+01
     .368058681488D-05  .543168163858D-03  .924803316593D-05  .515362265587D+04
     .201600000000D+06  .633299350739D-07 -.702868703497D+00 -.128522515297D-06
     .959470640821D+00  .199468750000D+03 -.232563176452D+01 -.816141138411D-08
     .162506769059D-09  .100000000000D+01  .190300000000D+04  .000000000000D+00
     .340000000000D+01  .000000000000D+00  .465661287308D-09  .103000000000D+03
     .194406000000D+06  .400000000000D+01
23 16  6 28  7 59 44.0 -.179957598448D-03 -.159161572810D-11  .000000000000D+00
     .210000000000D+02  .667812500000D+02  .506913972145D-08  .184803200387D+01
     .355578958988D-05  .110782979755D-01  .900775194168D-05  .515366184235D+04
     .201584000000D+06 -.324100255966D-06 -.699467781766D+00  .102445483208D-06
     .945813684662D+00  .202625000000D+03 -.255890326571D+01 -.834999066777D-08
     .141077305007D-09  .100000000000D+01  .190300000000D+04  .000000000000D+00
     .240000000000D+01  .000000000000D+00 -.200234353542D-07  .210000000000D+02
     .197166000000D+06  .400000000000D+01
 8 16  6 28  7 59 44.0 -.407020561397D-04 -.147792889038D-11  .000000000000D+00
     .000000000000D+00  .114062500000D+02  .429910764652D-08 -.227626867337D+01
     .679865479469D-06  .169614620972D-02  .798143446445D-05  .515371542931D+04
     .201584000000D+06  .372529029846D-08  .243755137298D+01  .130385160446D-07
     .963702369820D+00  .227500000000D+03 -.105034823396D+01 -.807319342377D-08
     .339299847486D-09  .100000000000D+01  .190300000000D+04  .000000000000D+00
     .240000000000D+01  .000000000000D+00  .465661287308D-08  .000000000000D+00
     .201156000000D+06  .400000000000D+01
 8 16  6 28  9 59 44.0 -.407123006880D-04 -.147792889038D-11  .000000000000D+00
     .700000000000D+01  .321875000000D+01  .432946605392D-08 -.122726467533D+01
     .245869159698D-06  .169657159131D-02  .865384936333D-05  .515371166229D+04
     .208784000000D+06  .223517417908D-07  .243749337413D+01  .409781932831D-07
     .963704877262D+00  .215781250000D+03 -.104919713395D+01 -.805140680198D-08
     .332871008271D-09  .100000000000D+01  .190300000000D+04  .000000000000D+00
     .240000000000D+01  .000000000000D+00  .465661287308D-08  .700000000000D+01
     .201606000000D+06  .400000000000D+01
23 16  6 28  9 59 44.0 -.179968774319D-03 -.159161572810D-11  .000000000000D+00
     .220000000000D+02  .681875000000D+02  .496342103212D-08  .289831656286D+01
     .353530049324D-05  .110796673689D-01  .955723226070D-05  .515365867805D+04
     .208784000000D+06 -.987201929092D-07 -.699527155760D+00 -.169500708580D-06
     .945816388135D+00  .190156250000D+03 -.255899513258D+01 -.804069206996D-08
     .215723271454D-09  .100000000000D+01  .190300000000D+04  .000000000000D+00
     .240000000000D+01  .000000000000D+00 -.200234353542D-07  .220000000000D+02
     .201606000000D+06  .400000000000D+01
 1 16  6 28 10  0  0.0  .251131132245D-04  .125055521494D-11  .000000000000D+00
     .600000000000D+02 -.270937500000D+02  .462876423518D-08  .211508048998D+01
    -.142864882946D-05  .561912718695D-02  .546872615814D-05  .515363956261D+04
     .208800000000D+06 -.949949026108D-07 -.278532147993D+01  .149011611938D-07
     .964868344788D+00  .275062500000D+03  .481030995500D+00 -.824820071352D-08
     .114647632677D-09  .100000000000D+01  .190300000000D+04  .000000000000D+00
     .240000000000D+01  .000000000000D+00  .512227416039D-08  .600000000000D+02
     .201606000000D+06  .400000000000D+01
 2 16  6 28 10  0  0.0  .581901520491D-03 -.375166564481D-11  .000000000000D+00
     .800000000000D+02 -.391875000000D+02  .493377694018D-08  .249107425997D+01
    -.208243727684D-05  .157965160906D-01  .520981848240D-05  .515358302116D+04
     .208800000000D+06  .763684511185D-07 -.283152260531D+01 -.258907675743D-06
     .943668588865D+00  .267093750000D+03 -.210579954604D+01 -.817105464294D-08
     .113933317209D-09  .100000000000D+01  .190300000000D+04  .000000000000D+00
     .240000000000D+01  .000000000000D+00 -.200234353542D-07  .800000000000D+02
     .201606000000D+06  .400000000000D+01
 3 16  6 28 10  0  0.0 -.711563043296D-04 -.318323145621D-11  .000000000000D+00
     .660000000000D+02 -.353125000000D+02  .458019078333D-08  .305936589485D+01
    -.209733843803D-05  .207440112717D-03  .101272016764D-04  .515367588997D+04
     .208800000000D+06 -.260770320892D-07 -.174383409835D+01 -.558793544769D-08
     .958964975872D+00  .184906250000D+03 -.160336564357D+01 -.800819071614D-08
    -.104290058385D-09  .100000000000D+01  .190300000000D+04  .000000000000D+00
     .240000000000D+01  .000000000000D+00  .186264514923D-08  .660000000000D+02
     .201606000000D+06  .400000000000D+01
